{
    "links": {
        "self": "http://www.neowsapp.com/rest/v1/neo/3991651?api_key=iIulBulltgU6a56xZRHN4H3l9WmuAYTsLGpBGhQ2"
    },
    "id": "3991651",
    "neo_reference_id": "3991651",
    "name": "(2020 DY)",
    "designation": "2020 DY",
    "nasa_jpl_url": "http://ssd.jpl.nasa.gov/sbdb.cgi?sstr=3991651",
    "absolute_magnitude_h": 25.389,
    "estimated_diameter": {
        "kilometers": {
            "estimated_diameter_min": 0.0222205588,
            "estimated_diameter_max": 0.04968668
        },
        "meters": {
            "estimated_diameter_min": 22.2205588142,
            "estimated_diameter_max": 49.6866800066
        },
        "miles": {
            "estimated_diameter_min": 0.0138072109,
            "estimated_diameter_max": 0.030873862
        },
        "feet": {
            "estimated_diameter_min": 72.9020981801,
            "estimated_diameter_max": 163.014047233
        }
    },
    "is_potentially_hazardous_asteroid": false,
    "close_approach_data": [
        {
            "close_approach_date": "2016-10-26",
            "close_approach_date_full": "2016-Oct-26 19:44",
            "epoch_date_close_approach": 1477511040000,
            "relative_velocity": {
                "kilometers_per_second": "6.0036751979",
                "kilometers_per_hour": "21613.2307124881",
                "miles_per_hour": "13429.6210502124"
            },
            "miss_distance": {
                "astronomical": "0.078960305",
                "lunar": "30.715558645",
                "kilometers": "11812293.44255035",
                "miles": "7339818.79328083"
            },
            "orbiting_body": "Mars"
        },
        {
            "close_approach_date": "2019-10-28",
            "close_approach_date_full": "2019-Oct-28 07:03",
            "epoch_date_close_approach": 1572246180000,
            "relative_velocity": {
                "kilometers_per_second": "3.6741625732",
                "kilometers_per_hour": "13226.9852634678",
                "miles_per_hour": "8218.7342599586"
            },
            "miss_distance": {
                "astronomical": "0.1866426055",
                "lunar": "72.6039735395",
                "kilometers": "27921336.234050285",
                "miles": "17349513.828192533"
            },
            "orbiting_body": "Earth"
        },
        {
            "close_approach_date": "2020-02-11",
            "close_approach_date_full": "2020-Feb-11 14:14",
            "epoch_date_close_approach": 1581430440000,
            "relative_velocity": {
                "kilometers_per_second": "6.2243376629",
                "kilometers_per_hour": "22407.6155865627",
                "miles_per_hour": "13923.2209182172"
            },
            "miss_distance": {
                "astronomical": "0.0652911334",
                "lunar": "25.3982508926",
                "kilometers": "9767414.486525858",
                "miles": "6069189.9298505204"
            },
            "orbiting_body": "Earth"
        }
    ],
    "orbital_data": {
        "orbit_id": "4",
        "orbit_determination_date": "2020-02-29 04:58:12",
        "first_observation_date": "2020-02-17",
        "last_observation_date": "2020-02-29",
        "data_arc_in_days": 12,
        "observations_used": 26,
        "orbit_uncertainty": "8",
        "minimum_orbit_intersection": ".0638809",
        "jupiter_tisserand_invariant": "5.124",
        "epoch_osculation": "2458899.5",
        "eccentricity": ".2060360805829331",
        "semi_major_axis": "1.245482028032133",
        "inclination": "8.997708402580601",
        "ascending_node_longitude": "155.8099378885076",
        "orbital_period": "507.6970321114562",
        "perihelion_distance": ".9888677925399098",
        "perihelion_argument": "302.2815929320076",
        "aphelion_distance": "1.502096263524357",
        "perihelion_time": "2458850.772036762634",
        "mean_anomaly": "34.55223421830187",
        "mean_motion": ".7090843105834194",
        "equinox": "J2000",
        "orbit_class": {
            "orbit_class_type": "APO",
            "orbit_class_description": "Near-Earth asteroid orbits which cross the Earth’s orbit similar to that of 1862 Apollo",
            "orbit_class_range": "a (semi-major axis) > 1.0 AU; q (perihelion) < 1.017 AU"
        }
    },
    "is_sentry_object": false
}